OBJECT_NAME,OBJECT_ID,EPOCH,MEAN_MOTION,ECCENTRICITY,INCLINATION,RA_OF_ASC_NODE,ARG_OF_PERICENTER,MEAN_ANOMALY,EPHEMERIS_TYPE,CLASSIFICATION_TYPE,NORAD_CAT_ID,ELEMENT_SET_NO,REV_AT_EPOCH,BSTAR,MEAN_MOTION_DOT,MEAN_MOTION_DDOT
STARLINK-3502,2022-016AJ,2023-12-21T03:07:47.742816,15.08840927,0.0001667,53.2195,343.3944,108.6116,251.5057,0,U,51746,999,10260,2.37E-04,3.49E-05,0
STARLINK-3446,2022-016AK,2023-12-20T07:30:03.106080,15.08841632,0.0001479,53.2172,357.0947,101.223,258.8929,0,U,51747,999,10122,-3.11E-06,-3.38E-06,0
STARLINK-3501,2022-016AL,2023-12-21T06:06:34.023744,15.08851303,0.0001244,53.2168,342.8095,76.6563,283.4568,0,U,51748,999,10257,2.90E-04,4.33E-05,0
STARLINK-3451,2022-016AM,2023-12-21T03:36:54.482112,15.08859463,0.0001818,53.2186,353.466,98.9185,261.2013,0,U,51749,999,10245,-6.34E-05,-1.30E-05,0
STARLINK-3505,2022-016AN,2023-12-20T06:06:34.920576,15.08846445,0.0001808,53.2189,347.3218,59.0666,301.0503,0,U,51750,999,10135,-6.11E-05,-1.26E-05,0
STARLINK-3506,2022-016AP,2023-12-21T06:13:15.463200,15.08850051,0.0001505,53.2179,342.7983,92.8552,267.2613,0,U,51751,999,10262,2.82E-04,4.20E-05,0
STARLINK-3511,2022-016AQ,2023-12-21T04:06:03.587040,15.08847376,0.000121,53.218,343.1324,107.7167,252.3957,0,U,51752,999,10261,2.39E-04,3.52E-05,0
STARLINK-3507,2022-016AR,2023-12-21T04:27:16.242624,15.08847507,0.0001356,53.2175,343.1359,78.0225,282.0919,0,U,51753,999,10256,1.71E-04,2.43E-05,0
STARLINK-3457,2022-016AS,2023-12-21T03:32:51.645408,15.088478,0.0001971,53.219,343.0576,137.3147,222.7999,0,U,51754,999,10261,3.20E-05,2.21E-06,0
STARLINK-3460,2022-016AT,2023-12-21T05:45:23.009760,15.08829945,0.0001211,53.2167,342.8898,80.2429,279.87,0,U,51755,999,10261,-1.95E-05,-5.97E-06,0
STARLINK-3513,2022-016AU,2023-12-21T05:02:59.549280,15.0885266,0.0001166,53.2172,343.0139,86.8789,273.2336,0,U,51756,999,10257,4.60E-04,7.04E-05,0
STARLINK-3459,2022-016AV,2023-12-21T06:34:27.402528,15.08861647,0.0001451,53.2175,342.7374,99.6099,260.5057,0,U,51757,999,10262,7.80E-04,1.22E-04,0
STARLINK-3458,2022-016AW,2023-12-20T06:31:40.911456,15.08843679,0.0001381,53.2184,347.1779,105.7855,254.329,0,U,51758,999,10250,6.19E-05,6.98E-06,0
STARLINK-3456,2022-016AX,2023-12-21T03:17:00.099744,15.08847938,0.0001298,53.2172,343.3422,119.6739,240.4383,0,U,51759,999,10263,2.82E-04,4.21E-05,0
STARLINK-3622,2022-017A,2023-12-21T08:46:52.856256,15.08847048,0.0001388,53.2179,12.3224,105.2189,254.8956,0,U,51768,999,10187,3.04E-04,4.56E-05,0
STARLINK-3621,2022-017B,2023-12-21T07:00:54.044352,15.08847957,0.0001359,53.2177,12.6461,89.7303,270.3845,0,U,51769,999,10186,3.13E-04,4.71E-05,0
STARLINK-3612,2022-017C,2023-12-20T23:09:16.304256,15.08835525,0.0001441,53.2187,14.1237,112.1448,247.9697,0,U,51770,999,10181,1.56E-04,2.20E-05,0
STARLINK-3614,2022-017D,2023-12-21T06:56:58.569792,15.08844634,0.0001601,53.2188,12.6655,111.369,248.7473,0,U,51771,999,10186,2.90E-04,4.33E-05,0
STARLINK-3623,2022-017E,2023-12-21T08:20:22.185600,15.0884784,0.0001617,53.2192,12.4064,112.4596,247.6568,0,U,51772,999,10192,2.35E-04,3.46E-05,0
STARLINK-3624,2022-017F,2023-12-21T06:55:35.677632,15.08845797,0.0001417,53.2172,12.6622,90.1239,269.9915,0,U,51773,999,10187,2.96E-04,4.43E-05,0
STARLINK-3629,2022-017G,2023-12-20T08:19:00.112512,15.08848772,0.0001384,53.2189,16.8982,103.027,257.0876,0,U,51774,999,10023,-2.06E-04,-3.57E-05,0
STARLINK-3620,2022-017H,2023-12-21T06:50:17.624544,15.08833679,0.0001607,53.2183,12.6861,105.6302,254.4867,0,U,51775,999,10186,4.38E-04,6.69E-05,0
STARLINK-3608,2022-017J,2023-12-21T08:04:28.690752,15.08844945,0.0001428,53.2192,12.4532,101.0389,259.0764,0,U,51776,999,10187,1.98E-04,2.87E-05,0
STARLINK-3625,2022-017K,2023-12-21T08:11:09.316320,15.08853277,0.000168,53.2182,12.4037,100.2992,259.819,0,U,51777,999,10188,3.37E-04,5.08E-05,0
STARLINK-3615,2022-017L,2023-12-21T08:16:23.422656,15.0884574,0.0001447,53.2172,2.2962,97.5434,262.5722,0,U,51778,999,10202,3.79E-04,5.75E-05,0
STARLINK-3611,2022-017M,2023-12-20T08:15:05.551200,15.08843094,0.0001596,53.2179,16.9595,92.1423,267.9752,0,U,51779,999,10172,-4.84E-05,-1.06E-05,0
STARLINK-3617,2022-017N,2023-12-20T09:27:54.108864,15.08840234,0.000189,53.2196,16.6669,69.9052,290.2143,0,U,51780,999,10009,-4.19E-05,-9.56E-06,0
STARLINK-3580,2022-017P,2023-12-21T07:48:34.843392,15.08853318,0.0002006,53.2188,12.4591,70.162,289.9588,0,U,51781,999,10188,1.83E-04,2.63E-05,0
STARLINK-3616,2022-017Q,2023-12-20T22:48:07.791552,15.08837416,0.0001813,53.2189,24.2044,67.6325,292.4859,0,U,51782,999,10167,1.74E-04,2.48E-05,0
STARLINK-3628,2022-017R,2023-12-21T07:55:16.561920,15.08856155,0.0001747,53.2189,12.5281,84.4308,275.6883,0,U,51783,999,10187,4.51E-04,6.90E-05,0
