STARLINK-3502           
1 51746U 22016AJ  23355.13041369  .00003488  00000+0  23716-3 0  9993
2 51746  53.2195 343.3944 0001667 108.6116 251.5057 15.08840927102601
STARLINK-3446           
1 51747U 22016AK  23354.31253595 -.00000338  00000+0 -31129-5 0  9991
2 51747  53.2172 357.0947 0001479 101.2230 258.8929 15.08841632101228
STARLINK-3501           
1 51748U 22016AL  23355.25456046  .00004334  00000+0  29011-3 0  9995
2 51748  53.2168 342.8095 0001244  76.6563 283.4568 15.08851303102572
STARLINK-3451           
1 51749U 22016AM  23355.15063058 -.00001298  00000+0 -63432-4 0  9996
2 51749  53.2186 353.4660 0001818  98.9185 261.2013 15.08859463102454
STARLINK-3505           
1 51750U 22016AN  23354.25457084 -.00001261  00000+0 -61114-4 0  9999
2 51750  53.2189 347.3218 0001808  59.0666 301.0503 15.08846445101352
STARLINK-3506           
1 51751U 22016AP  23355.25920675  .00004201  00000+0  28182-3 0  9994
2 51751  53.2179 342.7983 0001505  92.8552 267.2613 15.08850051102627
STARLINK-3511           
1 51752U 22016AQ  23355.17087485  .00003519  00000+0  23900-3 0  9993
2 51752  53.2180 343.1324 0001210 107.7167 252.3957 15.08847376102616
STARLINK-3507           
1 51753U 22016AR  23355.18560466  .00002434  00000+0  17093-3 0  9991
2 51753  53.2175 343.1359 0001356  78.0225 282.0919 15.08847507102563
STARLINK-3457           
1 51754U 22016AS  23355.14781997  .00000221  00000+0  31998-4 0  9995
2 51754  53.2190 343.0576 0001971 137.3147 222.7999 15.08847800102617
STARLINK-3460           
1 51755U 22016AT  23355.23984965 -.00000597  00000+0 -19459-4 0  9992
2 51755  53.2167 342.8898 0001211  80.2429 279.8700 15.08829945102615
STARLINK-3513           
1 51756U 22016AU  23355.21041145  .00007041  00000+0  45985-3 0  9996
2 51756  53.2172 343.0139 0001166  86.8789 273.2336 15.08852660102571
STARLINK-3459           
1 51757U 22016AV  23355.27392827  .00012158  00000+0  78020-3 0  9990
2 51757  53.2175 342.7374 0001451  99.6099 260.5057 15.08861647102625
STARLINK-3458           
1 51758U 22016AW  23354.27200129  .00000698  00000+0  61929-4 0  9990
2 51758  53.2184 347.1779 0001381 105.7855 254.3290 15.08843679102507
STARLINK-3456           
1 51759U 22016AX  23355.13680671  .00004207  00000+0  28222-3 0  9999
2 51759  53.2172 343.3422 0001298 119.6739 240.4383 15.08847938102635
STARLINK-3622           
1 51768U 22017A   23355.36588954  .00004555  00000+0  30404-3 0  9997
2 51768  53.2179  12.3224 0001388 105.2189 254.8956 15.08847048101877
STARLINK-3621           
1 51769U 22017B   23355.29229218  .00004705  00000+0  31343-3 0  9995
2 51769  53.2177  12.6461 0001359  89.7303 270.3845 15.08847957101862
STARLINK-3612           
1 51770U 22017C   23354.96477204  .00002202  00000+0  15639-3 0  9990
2 51770  53.2187  14.1237 0001441 112.1448 247.9697 15.08835525101814
STARLINK-3614           
1 51771U 22017D   23355.28956678  .00004329  00000+0  28986-3 0  9995
2 51771  53.2188  12.6655 0001601 111.3690 248.7473 15.08844634101868
STARLINK-3623           
1 51772U 22017E   23355.34747900  .00003462  00000+0  23543-3 0  9990
2 51772  53.2192  12.4064 0001617 112.4596 247.6568 15.08847840101922
STARLINK-3624           
1 51773U 22017F   23355.28860738  .00004428  00000+0  29606-3 0  9998
2 51773  53.2172  12.6622 0001417  90.1239 269.9915 15.08845797101873
STARLINK-3629           
1 51774U 22017G   23354.34652908 -.00003567  00000+0 -20606-3 0  9999
2 51774  53.2189  16.8982 0001384 103.0270 257.0876 15.08848772100238
STARLINK-3620           
1 51775U 22017H   23355.28492621  .00006687  00000+0  43790-3 0  9991
2 51775  53.2183  12.6861 0001607 105.6302 254.4867 15.08833679101866
STARLINK-3608           
1 51776U 22017J   23355.33644318  .00002865  00000+0  19799-3 0  9996
2 51776  53.2192  12.4532 0001428 101.0389 259.0764 15.08844945101872
STARLINK-3625           
1 51777U 22017K   23355.34108005  .00005082  00000+0  33705-3 0  9993
2 51777  53.2182  12.4037 0001680 100.2992 259.8190 15.08853277101883
STARLINK-3615           
1 51778U 22017L   23355.34471554  .00005749  00000+0  37893-3 0  9998
2 51778  53.2172   2.2962 0001447  97.5434 262.5722 15.08845740102022
STARLINK-3611           
1 51779U 22017M   23354.34381425 -.00001058  00000+0 -48408-4 0  9991
2 51779  53.2179  16.9595 0001596  92.1423 267.9752 15.08843094101726
STARLINK-3617           
1 51780U 22017N   23354.39437626 -.00000956  00000+0 -41946-4 0  9999
2 51780  53.2196  16.6669 0001890  69.9052 290.2143 15.08840234100098
STARLINK-3580           
1 51781U 22017P   23355.32540328  .00002632  00000+0  18333-3 0  9992
2 51781  53.2188  12.4591 0002006  70.1620 289.9588 15.08853318101886
STARLINK-3616           
1 51782U 22017Q   23354.95009018  .00002484  00000+0  17415-3 0  9992
2 51782  53.2189  24.2044 0001813  67.6325 292.4859 15.08837416101678
STARLINK-3628           
1 51783U 22017R   23355.33005280  .00006896  00000+0  45076-3 0  9998
2 51783  53.2189  12.5281 0001747  84.4308 275.6883 15.08856155101879
